{
    "links": {
        "self": "http://www.neowsapp.com/rest/v1/neo/3587873?api_key=iIulBulltgU6a56xZRHN4H3l9WmuAYTsLGpBGhQ2"
    },
    "id": "3587873",
    "neo_reference_id": "3587873",
    "name": "(2011 WB)",
    "designation": "2011 WB",
    "nasa_jpl_url": "http://ssd.jpl.nasa.gov/sbdb.cgi?sstr=3587873",
    "absolute_magnitude_h": 25.9,
    "estimated_diameter": {
        "kilometers": {
            "estimated_diameter_min": 0.0175612318,
            "estimated_diameter_max": 0.0392681082
        },
        "meters": {
            "estimated_diameter_min": 17.561231848,
            "estimated_diameter_max": 39.2681081809
        },
        "miles": {
            "estimated_diameter_min": 0.0109120402,
            "estimated_diameter_max": 0.0244000636
        },
        "feet": {
            "estimated_diameter_min": 57.6155918963,
            "estimated_diameter_max": 128.8323800441
        }
    },
    "is_potentially_hazardous_asteroid": false,
    "close_approach_data": [
        {
            "close_approach_date": "2011-11-10",
            "close_approach_date_full": "2011-Nov-10 07:57",
            "epoch_date_close_approach": 1320911820000,
            "relative_velocity": {
                "kilometers_per_second": "7.3882823432",
                "kilometers_per_hour": "26597.8164355237",
                "miles_per_hour": "16526.8487735064"
            },
            "miss_distance": {
                "astronomical": "0.0459596653",
                "lunar": "17.8783098017",
                "kilometers": "6875468.034792911",
                "miles": "4272217.7314517318"
            },
            "orbiting_body": "Earth"
        }
    ],
    "orbital_data": {
        "orbit_id": "6",
        "orbit_determination_date": "2017-04-06 08:52:02",
        "first_observation_date": "2011-11-16",
        "last_observation_date": "2011-11-26",
        "data_arc_in_days": 10,
        "observations_used": 18,
        "orbit_uncertainty": "8",
        "minimum_orbit_intersection": ".035302",
        "jupiter_tisserand_invariant": "4.002",
        "epoch_osculation": "2455883.5",
        "eccentricity": ".425324974326904",
        "semi_major_axis": "1.760538764974684",
        "inclination": "6.176878249938285",
        "ascending_node_longitude": "52.7126653625706",
        "orbital_period": "853.2313714154834",
        "perihelion_distance": "1.011737659960307",
        "perihelion_argument": "335.3323572056953",
        "aphelion_distance": "2.509339869989061",
        "perihelion_time": "2455860.215991585615",
        "mean_anomaly": "9.824114900126947",
        "mean_motion": ".4219254144427104",
        "equinox": "J2000",
        "orbit_class": {
            "orbit_class_type": "APO",
            "orbit_class_description": "Near-Earth asteroid orbits which cross the Earth’s orbit similar to that of 1862 Apollo",
            "orbit_class_range": "a (semi-major axis) > 1.0 AU; q (perihelion) < 1.017 AU"
        }
    },
    "is_sentry_object": false
}